KUIPER-00408            
1 68924U 26098F   26199.65186347  .00005204  00000+0  21608-3 0  9991
2 68924  51.8742 279.5410 0013730 270.2647  89.6762 15.25410348 12136
KUIPER-00409            
1 68925U 26098G   26199.83335647 -.00025520  00000+0 -21361-2 0  9991
2 68925  51.8938 278.7679 0004735 293.5488 221.2015 14.97771454  4006
KUIPER-00410            
1 68926U 26098H   26199.83335647 -.01190525  00000+0 -56157-1 0  9991
2 68926  51.8751 278.6472 0013352 261.7995  31.5986 15.21721888  5492
KUIPER-00412            
1 68927U 26098J   26199.84497543 -.00173296  00000+0 -48142-2 0  9998
2 68927  51.8767 274.2202 0003213   0.6284 359.4706 15.36979564 12222
KUIPER-00413            
1 68928U 26098K   26199.83335647 -.00065377  00000+0 -60324-2 0  9990
2 68928  51.8953 281.1384 0019853 280.4479 195.3496 14.94289813  5644
KUIPER-00414            
1 68929U 26098L   26199.25445911  .00001493  00000+0  22486-3 0  9998
2 68929  51.8979 293.3775 0001163 285.3679  74.7155 14.79930422 11903
KUIPER-00415            
1 68930U 26098M   26199.83335647 -.00696832  00000+0 -29348-1 0  9999
2 68930  51.8802 277.0229 0008559 256.9265 123.7287 15.25446596  5252
KUIPER-00416            
1 68931U 26098N   26199.57656821  .00014269  00000+0  39003-3 0  9998
2 68931  51.8751 275.4011 0002506  33.9041 326.2106 15.37630589 12188
KUIPER-00420            
1 68932U 26098P   26199.49793972  .00015791  00000+0  44226-3 0  9993
2 68932  51.8769 276.3773 0003533 329.1824  30.8954 15.36784242 12165
KUIPER-00421            
1 68933U 26098Q   26199.53709938  .00014379  00000+0  49911-3 0  9995
2 68933  51.8779 278.0882 0007236 246.5982 113.4241 15.29995383 12145
KUIPER-00425            
1 68934U 26098R   26199.83335647 -.00057393  00000+0 -40332-2 0  9993
2 68934  51.8880 279.4672 0014045 264.3433 326.3124 15.04707395  5454
KUIPER-00430            
1 68935U 26098S   26199.83335647 -.00069741  00000+0 -66588-2 0  9995
2 68935  51.8934 280.9628 0014651 262.5496  38.8913 14.93054649  4246
KUIPER-00431            
1 68936U 26098T   26199.83335647 -.00080795  00000+0 -10348-1 0  9990
2 68936  51.8975 283.2265 0003828 238.3908 280.2907 14.81313485  4911
KUIPER-00432            
1 68937U 26098U   26199.83335647 -.01636384  00000+0 -91314-1 0  9995
2 68937  51.8752 278.0908 0011324 267.5807 319.6687 15.16493707  4044
KUIPER-00434            
1 68938U 26098V   26199.83335647 -.00070970  00000+0 -65439-2 0  9998
2 68938  51.8900 278.7514 0001446 238.3830  67.7915 14.94528007  3935
KUIPER-00436            
1 68939U 26098W   26199.83335647 -.00060817  00000+0 -49788-2 0  9997
2 68939  51.8872 278.9520 0008089 258.3086 286.1563 14.99028380  5615
