{"fetched_at":"2026-07-19T07:04:47.356Z","source":"https://celestrak.org/NORAD/elements/gp.php?GROUP=kuiper&FORMAT=JSON","constellation":"kuiper","records":[{"OBJECT_NAME":"KUIPER-00408","OBJECT_ID":"2026-098F","EPOCH":"2026-07-18T15:38:41.003808","CLASSIFICATION_TYPE":"U","MEAN_MOTION":15.25410348,"ECCENTRICITY":0.001373,"INCLINATION":51.8742,"RA_OF_ASC_NODE":279.541,"ARG_OF_PERICENTER":270.2647,"MEAN_ANOMALY":89.6762,"EPHEMERIS_TYPE":0,"NORAD_CAT_ID":68924,"ELEMENT_SET_NO":999,"REV_AT_EPOCH":1213,"BSTAR":0.00021608,"MEAN_MOTION_DOT":0.00005204,"MEAN_MOTION_DDOT":0},{"OBJECT_NAME":"KUIPER-00409","OBJECT_ID":"2026-098G","EPOCH":"2026-07-18T20:00:01.999008","CLASSIFICATION_TYPE":"U","MEAN_MOTION":14.97771454,"ECCENTRICITY":0.0004735,"INCLINATION":51.8938,"RA_OF_ASC_NODE":278.7679,"ARG_OF_PERICENTER":293.5488,"MEAN_ANOMALY":221.2015,"EPHEMERIS_TYPE":0,"NORAD_CAT_ID":68925,"ELEMENT_SET_NO":999,"REV_AT_EPOCH":400,"BSTAR":-0.0021361,"MEAN_MOTION_DOT":-0.0002552,"MEAN_MOTION_DDOT":0},{"OBJECT_NAME":"KUIPER-00410","OBJECT_ID":"2026-098H","EPOCH":"2026-07-18T20:00:01.999008","CLASSIFICATION_TYPE":"U","MEAN_MOTION":15.21721888,"ECCENTRICITY":0.0013352,"INCLINATION":51.8751,"RA_OF_ASC_NODE":278.6472,"ARG_OF_PERICENTER":261.7995,"MEAN_ANOMALY":31.5986,"EPHEMERIS_TYPE":0,"NORAD_CAT_ID":68926,"ELEMENT_SET_NO":999,"REV_AT_EPOCH":549,"BSTAR":-0.056157,"MEAN_MOTION_DOT":-0.01190525,"MEAN_MOTION_DDOT":0},{"OBJECT_NAME":"KUIPER-00412","OBJECT_ID":"2026-098J","EPOCH":"2026-07-18T20:16:45.877152","CLASSIFICATION_TYPE":"U","MEAN_MOTION":15.36979564,"ECCENTRICITY":0.0003213,"INCLINATION":51.8767,"RA_OF_ASC_NODE":274.2202,"ARG_OF_PERICENTER":0.6284,"MEAN_ANOMALY":359.4706,"EPHEMERIS_TYPE":0,"NORAD_CAT_ID":68927,"ELEMENT_SET_NO":999,"REV_AT_EPOCH":1222,"BSTAR":-0.0048142,"MEAN_MOTION_DOT":-0.00173296,"MEAN_MOTION_DDOT":0},{"OBJECT_NAME":"KUIPER-00413","OBJECT_ID":"2026-098K","EPOCH":"2026-07-18T20:00:01.999008","CLASSIFICATION_TYPE":"U","MEAN_MOTION":14.94289813,"ECCENTRICITY":0.0019853,"INCLINATION":51.8953,"RA_OF_ASC_NODE":281.1384,"ARG_OF_PERICENTER":280.4479,"MEAN_ANOMALY":195.3496,"EPHEMERIS_TYPE":0,"NORAD_CAT_ID":68928,"ELEMENT_SET_NO":999,"REV_AT_EPOCH":564,"BSTAR":-0.0060324,"MEAN_MOTION_DOT":-0.00065377,"MEAN_MOTION_DDOT":0},{"OBJECT_NAME":"KUIPER-00414","OBJECT_ID":"2026-098L","EPOCH":"2026-07-18T06:06:25.267104","CLASSIFICATION_TYPE":"U","MEAN_MOTION":14.79930422,"ECCENTRICITY":0.00011636,"INCLINATION":51.8979,"RA_OF_ASC_NODE":293.3775,"ARG_OF_PERICENTER":285.3679,"MEAN_ANOMALY":74.7155,"EPHEMERIS_TYPE":0,"NORAD_CAT_ID":68929,"ELEMENT_SET_NO":999,"REV_AT_EPOCH":1190,"BSTAR":0.00022486094,"MEAN_MOTION_DOT":0.00001493,"MEAN_MOTION_DDOT":0},{"OBJECT_NAME":"KUIPER-00415","OBJECT_ID":"2026-098M","EPOCH":"2026-07-18T20:00:01.999008","CLASSIFICATION_TYPE":"U","MEAN_MOTION":15.25446596,"ECCENTRICITY":0.0008559,"INCLINATION":51.8802,"RA_OF_ASC_NODE":277.0229,"ARG_OF_PERICENTER":256.9265,"MEAN_ANOMALY":123.7287,"EPHEMERIS_TYPE":0,"NORAD_CAT_ID":68930,"ELEMENT_SET_NO":999,"REV_AT_EPOCH":525,"BSTAR":-0.029348,"MEAN_MOTION_DOT":-0.00696832,"MEAN_MOTION_DDOT":0},{"OBJECT_NAME":"KUIPER-00416","OBJECT_ID":"2026-098N","EPOCH":"2026-07-18T13:50:15.493344","CLASSIFICATION_TYPE":"U","MEAN_MOTION":15.37630589,"ECCENTRICITY":0.0002506,"INCLINATION":51.8751,"RA_OF_ASC_NODE":275.4011,"ARG_OF_PERICENTER":33.9041,"MEAN_ANOMALY":326.2106,"EPHEMERIS_TYPE":0,"NORAD_CAT_ID":68931,"ELEMENT_SET_NO":999,"REV_AT_EPOCH":1218,"BSTAR":0.00039003,"MEAN_MOTION_DOT":0.00014269,"MEAN_MOTION_DDOT":0},{"OBJECT_NAME":"KUIPER-00420","OBJECT_ID":"2026-098P","EPOCH":"2026-07-18T11:57:01.991808","CLASSIFICATION_TYPE":"U","MEAN_MOTION":15.36784242,"ECCENTRICITY":0.00035337,"INCLINATION":51.8769,"RA_OF_ASC_NODE":276.3773,"ARG_OF_PERICENTER":329.1824,"MEAN_ANOMALY":30.8954,"EPHEMERIS_TYPE":0,"NORAD_CAT_ID":68932,"ELEMENT_SET_NO":999,"REV_AT_EPOCH":1216,"BSTAR":0.00044225955,"MEAN_MOTION_DOT":0.00015791,"MEAN_MOTION_DDOT":0},{"OBJECT_NAME":"KUIPER-00421","OBJECT_ID":"2026-098Q","EPOCH":"2026-07-18T12:53:25.386432","CLASSIFICATION_TYPE":"U","MEAN_MOTION":15.29995383,"ECCENTRICITY":0.00072363,"INCLINATION":51.8779,"RA_OF_ASC_NODE":278.0882,"ARG_OF_PERICENTER":246.5982,"MEAN_ANOMALY":113.4241,"EPHEMERIS_TYPE":0,"NORAD_CAT_ID":68933,"ELEMENT_SET_NO":999,"REV_AT_EPOCH":1214,"BSTAR":0.00049910661,"MEAN_MOTION_DOT":0.00014379,"MEAN_MOTION_DDOT":0},{"OBJECT_NAME":"KUIPER-00425","OBJECT_ID":"2026-098R","EPOCH":"2026-07-18T20:00:01.999008","CLASSIFICATION_TYPE":"U","MEAN_MOTION":15.04707395,"ECCENTRICITY":0.0014045,"INCLINATION":51.888,"RA_OF_ASC_NODE":279.4672,"ARG_OF_PERICENTER":264.3433,"MEAN_ANOMALY":326.3124,"EPHEMERIS_TYPE":0,"NORAD_CAT_ID":68934,"ELEMENT_SET_NO":999,"REV_AT_EPOCH":545,"BSTAR":-0.0040332,"MEAN_MOTION_DOT":-0.00057393,"MEAN_MOTION_DDOT":0},{"OBJECT_NAME":"KUIPER-00430","OBJECT_ID":"2026-098S","EPOCH":"2026-07-18T20:00:01.999008","CLASSIFICATION_TYPE":"U","MEAN_MOTION":14.93054649,"ECCENTRICITY":0.0014651,"INCLINATION":51.8934,"RA_OF_ASC_NODE":280.9628,"ARG_OF_PERICENTER":262.5496,"MEAN_ANOMALY":38.8913,"EPHEMERIS_TYPE":0,"NORAD_CAT_ID":68935,"ELEMENT_SET_NO":999,"REV_AT_EPOCH":424,"BSTAR":-0.0066588,"MEAN_MOTION_DOT":-0.00069741,"MEAN_MOTION_DDOT":0},{"OBJECT_NAME":"KUIPER-00431","OBJECT_ID":"2026-098T","EPOCH":"2026-07-18T20:00:01.999008","CLASSIFICATION_TYPE":"U","MEAN_MOTION":14.81313485,"ECCENTRICITY":0.0003828,"INCLINATION":51.8975,"RA_OF_ASC_NODE":283.2265,"ARG_OF_PERICENTER":238.3908,"MEAN_ANOMALY":280.2907,"EPHEMERIS_TYPE":0,"NORAD_CAT_ID":68936,"ELEMENT_SET_NO":999,"REV_AT_EPOCH":491,"BSTAR":-0.010348,"MEAN_MOTION_DOT":-0.00080795,"MEAN_MOTION_DDOT":0},{"OBJECT_NAME":"KUIPER-00432","OBJECT_ID":"2026-098U","EPOCH":"2026-07-18T20:00:01.999008","CLASSIFICATION_TYPE":"U","MEAN_MOTION":15.16493707,"ECCENTRICITY":0.0011324,"INCLINATION":51.8752,"RA_OF_ASC_NODE":278.0908,"ARG_OF_PERICENTER":267.5807,"MEAN_ANOMALY":319.6687,"EPHEMERIS_TYPE":0,"NORAD_CAT_ID":68937,"ELEMENT_SET_NO":999,"REV_AT_EPOCH":404,"BSTAR":-0.091314,"MEAN_MOTION_DOT":-0.01636384,"MEAN_MOTION_DDOT":0},{"OBJECT_NAME":"KUIPER-00434","OBJECT_ID":"2026-098V","EPOCH":"2026-07-18T20:00:01.999008","CLASSIFICATION_TYPE":"U","MEAN_MOTION":14.94528007,"ECCENTRICITY":0.0001446,"INCLINATION":51.89,"RA_OF_ASC_NODE":278.7514,"ARG_OF_PERICENTER":238.383,"MEAN_ANOMALY":67.7915,"EPHEMERIS_TYPE":0,"NORAD_CAT_ID":68938,"ELEMENT_SET_NO":999,"REV_AT_EPOCH":393,"BSTAR":-0.0065439,"MEAN_MOTION_DOT":-0.0007097,"MEAN_MOTION_DDOT":0},{"OBJECT_NAME":"KUIPER-00436","OBJECT_ID":"2026-098W","EPOCH":"2026-07-18T20:00:01.999008","CLASSIFICATION_TYPE":"U","MEAN_MOTION":14.9902838,"ECCENTRICITY":0.0008089,"INCLINATION":51.8872,"RA_OF_ASC_NODE":278.952,"ARG_OF_PERICENTER":258.3086,"MEAN_ANOMALY":286.1563,"EPHEMERIS_TYPE":0,"NORAD_CAT_ID":68939,"ELEMENT_SET_NO":999,"REV_AT_EPOCH":561,"BSTAR":-0.0049788,"MEAN_MOTION_DOT":-0.00060817,"MEAN_MOTION_DDOT":0}]}
